STARLINK-32568          
1 62128U 24222Q   26068.53626012  .00039010  00000+0  14201-2 0  9990
2 62128  42.9983 137.2058 0001206 271.2588  88.8126 15.27570226 72463
TOMORROW-S4             
1 62386U 24247K   26068.53305366  .00012677  00000+0  46927-3 0  9990
2 62386  44.9818 117.9996 0004434 210.4078 149.6548 15.27717249 67702
